{
  "type": "FeatureCollection",
  "features": [
    {
      "type": "Feature",
      "properties": {
        "norad_id": 41890,
        "name": "CYGFM07",
        "group": "weather",
        "lat": -6.1786916515923895,
        "lon": -98.24759210145973,
        "alt_km": 413.54456831754123,
        "timestamp": "2025-12-04T21:36:15.516648+00:00",
        "meta_object_name": "CYGFM07",
        "meta_object_id": "2016-078G",
        "meta_epoch": "2025-12-04T14:36:03.047904",
        "meta_mean_motion": 15.49507518,
        "meta_eccentricity": 0.00090464,
        "meta_inclination": 34.9473,
        "meta_ra_of_asc_node": 74.7461,
        "meta_arg_of_pericenter": 141.1948,
        "meta_mean_anomaly": 218.9424,
        "meta_ephemeris_type": 0,
        "meta_classification_type": "U",
        "meta_norad_cat_id": 41890,
        "meta_element_set_no": 999,
        "meta_rev_at_epoch": 49869,
        "meta_bstar": 0.00073299786,
        "meta_mean_motion_dot": 0.00041881,
        "meta_mean_motion_ddot": 0,
        "tle_line1": "1 41890U 16078G   25338.60836861  .00041881  00000+0  73300-3 0  9990",
        "tle_line2": "2 41890  34.9473  74.7461 0009046 141.1948 218.9424 15.49507518498691"
      },
      "geometry": {
        "type": "Point",
        "coordinates": [
          -98.24759210145973,
          -6.1786916515923895
        ]
      }
    },
    {
      "type": "Feature",
      "properties": {
        "norad_id": 41891,
        "name": "CYGFM03",
        "group": "weather",
        "lat": 15.608300283108008,
        "lon": 98.33209051351022,
        "alt_km": 416.2465851938359,
        "timestamp": "2025-12-04T21:36:15.516660+00:00",
        "meta_object_name": "CYGFM03",
        "meta_object_id": "2016-078H",
        "meta_epoch": "2025-12-04T15:17:54.462624",
        "meta_mean_motion": 15.4941283,
        "meta_eccentricity": 0.00083348,
        "meta_inclination": 34.9433,
        "meta_ra_of_asc_node": 76.4691,
        "meta_arg_of_pericenter": 128.1417,
        "meta_mean_anomaly": 232.0057,
        "meta_ephemeris_type": 0,
        "meta_classification_type": "U",
        "meta_norad_cat_id": 41891,
        "meta_element_set_no": 999,
        "meta_rev_at_epoch": 49867,
        "meta_bstar": 0.00071885813,
        "meta_mean_motion_dot": 0.0004092,
        "meta_mean_motion_ddot": 0,
        "tle_line1": "1 41891U 16078H   25338.63743591  .00040920  00000+0  71886-3 0  9991",
        "tle_line2": "2 41891  34.9433  76.4691 0008334 128.1417 232.0057 15.49412830498676"
      },
      "geometry": {
        "type": "Point",
        "coordinates": [
          98.33209051351022,
          15.608300283108008
        ]
      }
    },
    {
      "type": "Feature",
      "properties": {
        "norad_id": 43010,
        "name": "FENGYUN 3D",
        "group": "weather",
        "lat": -74.1725937937143,
        "lon": -20.967588207419805,
        "alt_km": 833.5588718941572,
        "timestamp": "2025-12-04T21:36:15.516671+00:00",
        "meta_object_name": "FENGYUN 3D",
        "meta_object_id": "2017-072A",
        "meta_epoch": "2025-12-04T15:12:01.058112",
        "meta_mean_motion": 14.19680247,
        "meta_eccentricity": 6.48e-05,
        "meta_inclination": 98.9882,
        "meta_ra_of_asc_node": 304.8227,
        "meta_arg_of_pericenter": 213.4128,
        "meta_mean_anomaly": 146.7007,
        "meta_ephemeris_type": 0,
        "meta_classification_type": "U",
        "meta_norad_cat_id": 43010,
        "meta_element_set_no": 999,
        "meta_rev_at_epoch": 41738,
        "meta_bstar": 0.00012662303,
        "meta_mean_motion_dot": 2.22e-06,
        "meta_mean_motion_ddot": 0,
        "tle_line1": "1 43010U 17072A   25338.63334558  .00000222  00000+0  12662-3 0  9998",
        "tle_line2": "2 43010  98.9882 304.8227 0000648 213.4128 146.7007 14.19680247417389"
      },
      "geometry": {
        "type": "Point",
        "coordinates": [
          -20.967588207419805,
          -74.1725937937143
        ]
      }
    },
    {
      "type": "Feature",
      "properties": {
        "norad_id": 43013,
        "name": "NOAA 20 (JPSS-1)",
        "group": "weather",
        "lat": 76.74884863093078,
        "lon": -125.61161240909676,
        "alt_km": 818.2799533325733,
        "timestamp": "2025-12-04T21:36:15.516691+00:00",
        "meta_object_name": "NOAA 20 (JPSS-1)",
        "meta_object_id": "2017-073A",
        "meta_epoch": "2025-12-04T14:27:43.856352",
        "meta_mean_motion": 14.19522433,
        "meta_eccentricity": 0.00020807,
        "meta_inclination": 98.7587,
        "meta_ra_of_asc_node": 274.9888,
        "meta_arg_of_pericenter": 98.7505,
        "meta_mean_anomaly": 261.3907,
        "meta_ephemeris_type": 0,
        "meta_classification_type": "U",
        "meta_norad_cat_id": 43013,
        "meta_element_set_no": 999,
        "meta_rev_at_epoch": 41686,
        "meta_bstar": 0.00011134814,
        "meta_mean_motion_dot": 1.91e-06,
        "meta_mean_motion_ddot": 0,
        "tle_line1": "1 43013U 17073A   25338.60259093  .00000191  00000+0  11135-3 0  9998",
        "tle_line2": "2 43013  98.7587 274.9888 0002080  98.7505 261.3907 14.19522433416864"
      },
      "geometry": {
        "type": "Point",
        "coordinates": [
          -125.61161240909676,
          76.74884863093078
        ]
      }
    },
    {
      "type": "Feature",
      "properties": {
        "norad_id": 43226,
        "name": "GOES 17",
        "group": "weather",
        "lat": -0.28552864650789755,
        "lon": -51.463753214002736,
        "alt_km": 35774.583250790194,
        "timestamp": "2025-12-04T21:36:15.516703+00:00",
        "meta_object_name": "GOES 17",
        "meta_object_id": "2018-022A",
        "meta_epoch": "2025-12-04T13:17:59.563104",
        "meta_mean_motion": 1.0027116,
        "meta_eccentricity": 0.00034747,
        "meta_inclination": 0.4372,
        "meta_ra_of_asc_node": 89.2939,
        "meta_arg_of_pericenter": 182.3294,
        "meta_mean_anomaly": 272.0015,
        "meta_ephemeris_type": 0,
        "meta_classification_type": "U",
        "meta_norad_cat_id": 43226,
        "meta_element_set_no": 999,
        "meta_rev_at_epoch": 2847,
        "meta_bstar": 0,
        "meta_mean_motion_dot": -1.68e-06,
        "meta_mean_motion_ddot": 0,
        "tle_line1": "1 43226U 18022A   25338.55416161 -.00000168  00000+0  00000+0 0  9994",
        "tle_line2": "2 43226   0.4372  89.2939 0003474 182.3294 272.0015  1.00271160 28478"
      },
      "geometry": {
        "type": "Point",
        "coordinates": [
          -51.463753214002736,
          -0.28552864650789755
        ]
      }
    },
    {
      "type": "Feature",
      "properties": {
        "norad_id": 43491,
        "name": "FENGYUN 2H",
        "group": "weather",
        "lat": 1.4989468517617142,
        "lon": 117.32154419367203,
        "alt_km": 35793.662754125566,
        "timestamp": "2025-12-04T21:36:15.516717+00:00",
        "meta_object_name": "FENGYUN 2H",
        "meta_object_id": "2018-050A",
        "meta_epoch": "2025-12-04T14:06:17.436384",
        "meta_mean_motion": 1.00271318,
        "meta_eccentricity": 0.00029353,
        "meta_inclination": 2.5283,
        "meta_ra_of_asc_node": 81.4195,
        "meta_arg_of_pericenter": 163.7063,
        "meta_mean_anomaly": 119.4653,
        "meta_ephemeris_type": 0,
        "meta_classification_type": "U",
        "meta_norad_cat_id": 43491,
        "meta_element_set_no": 999,
        "meta_rev_at_epoch": 2748,
        "meta_bstar": 0,
        "meta_mean_motion_dot": -1.17e-06,
        "meta_mean_motion_ddot": 0,
        "tle_line1": "1 43491U 18050A   25338.58770181 -.00000117  00000+0  00000+0 0  9991",
        "tle_line2": "2 43491   2.5283  81.4195 0002935 163.7063 119.4653  1.00271318 27489"
      },
      "geometry": {
        "type": "Point",
        "coordinates": [
          117.32154419367203,
          1.4989468517617142
        ]
      }
    },
    {
      "type": "Feature",
      "properties": {
        "norad_id": 43689,
        "name": "METOP-C",
        "group": "weather",
        "lat": 14.34740068263216,
        "lon": -140.96756630358928,
        "alt_km": 821.5504541970176,
        "timestamp": "2025-12-04T21:36:15.516728+00:00",
        "meta_object_name": "METOP-C",
        "meta_object_id": "2018-087A",
        "meta_epoch": "2025-12-04T15:45:39.991968",
        "meta_mean_motion": 14.21507247,
        "meta_eccentricity": 0.00016602,
        "meta_inclination": 98.6941,
        "meta_ra_of_asc_node": 36.5497,
        "meta_arg_of_pericenter": 55.7257,
        "meta_mean_anomaly": 304.4077,
        "meta_ephemeris_type": 0,
        "meta_classification_type": "U",
        "meta_norad_cat_id": 43689,
        "meta_element_set_no": 999,
        "meta_rev_at_epoch": 36719,
        "meta_bstar": 0.00015567804,
        "meta_mean_motion_dot": 2.97e-06,
        "meta_mean_motion_ddot": 0,
        "tle_line1": "1 43689U 18087A   25338.65671287  .00000297  00000+0  15568-3 0  9992",
        "tle_line2": "2 43689  98.6941  36.5497 0001660  55.7257 304.4077 14.21507247367191"
      },
      "geometry": {
        "type": "Point",
        "coordinates": [
          -140.96756630358928,
          14.34740068263216
        ]
      }
    }
  ]
}